COSMOS 2251 DEB         
1 34729U 93036YX  26202.35256353  .00006968  00000+0  74095-3 0  9996
2 34729  74.0144 279.0468 0017008 343.1947 134.6943 14.89051607917356
COSMOS 2251 DEB         
1 34732U 93036ZA  26203.24838257  .00000271  00000+0  80460-4 0  9993
2 34732  74.0442  39.1865 0038705 134.6564 343.8670 14.47492768913484
COSMOS 2251 DEB         
1 34738U 93036ZG  26202.40407588  .00000481  00000+0  13896-3 0  9996
2 34738  74.0153  90.6711 0046530 184.6482 291.2745 14.46733118910493
COSMOS 2251 DEB         
1 34750U 93036ZU  26202.79957604  .00004478  00000+0  85746-3 0  9994
2 34750  74.1062 139.9483 0034879  28.5487 359.4620 14.63722182914631
COSMOS 2251 DEB         
1 34752U 93036ZW  26202.60650149  .00009269  00000+0  62596-3 0  9991
2 34752  74.0100 268.8054 0047061 337.9983  21.9185 15.05784590931685
COSMOS 2251 DEB         
1 34754U 93036ZY  26203.04099248  .00000462  00000+0  15188-3 0  9990
2 34754  74.0295 178.1347 0030710 243.6173 190.3550 14.40756667913204
COSMOS 2251 DEB         
1 34755U 93036ZZ  26202.62148329  .00000456  00000+0  44494-3 0  9994
2 34755  73.9254 294.8900 0405765 274.2257 149.4255 13.50945272855066
COSMOS 2251 DEB         
1 34756U 93036AAA 26202.70052663  .00000586  00000+0  48236-3 0  9991
2 34756  74.0040 100.8170 0340287 290.4312  66.0571 13.67786759864422
COSMOS 2251 DEB         
1 34758U 93036AAC 26202.62378331  .00000299  00000+0  26783-3 0  9991
2 34758  74.1061 303.7574 0387072  16.6032 344.7345 13.58591752859099
COSMOS 2251 DEB         
1 34760U 93036AAE 26202.90356547  .00000628  00000+0  29276-3 0  9996
2 34760  74.0629 267.5041 0097567 267.6415 206.9601 14.20036415898274
COSMOS 2251 DEB         
1 34761U 93036AAF 26203.02003264  .00001057  00000+0  34946-3 0  9993
2 34761  74.0292 314.7069 0037988 299.8814  59.8568 14.38831064908313
COSMOS 2251 DEB         
1 34784U 93036AAM 26202.53531519  .00001004  00000+0  20406-3 0  9990
2 34784  74.0048 261.3700 0050554  12.9999 347.2457 14.61726847917609
COSMOS 2251 DEB         
1 34790U 93036AAT 26203.01225443  .00000809  00000+0  33657-3 0  9991
2 34790  74.0513 205.0499 0100215 214.7955 175.6806 14.25295047897259
COSMOS 2251 DEB         
1 34792U 93036AAV 26203.13953745  .00002387  00000+0  52913-3 0  9998
2 34792  74.0169 108.8363 0012347 155.1523 333.9689 14.57648246908748
COSMOS 2251 DEB         
1 34793U 93036AAW 26203.18741690  .00000466  00000+0  15723-3 0  9992
2 34793  74.0006 201.1214 0052598 302.9720 182.5063 14.38951717905159
COSMOS 2251 DEB         
1 34796U 93036AAZ 26202.33446707  .00001013  00000+0  25472-3 0  9993
2 34796  74.0292 162.3496 0099472 211.2918 300.3212 14.49689236912231
COSMOS 2251 DEB         
1 34797U 93036ABA 26203.28546093  .00003892  00000+0  10876-2 0  9996
2 34797  73.9763  46.3745 0071579 106.8000 254.1026 14.45015385906135
COSMOS 2251 DEB         
1 34814U 93036ABD 26199.96946042  .00000729  00000+0  24722-3 0  9995
2 34814  73.8946 280.4262 0052287 121.7244  55.2029 14.37769925904681
COSMOS 2251 DEB         
1 34815U 93036ABE 26203.03809209  .00004297  00000+0  54468-3 0  9997
2 34815  74.0437 166.1771 0054882 181.1537 178.9523 14.81001490919013
COSMOS 2251 DEB         
1 34816U 93036ABF 26202.58584104  .00000500  00000+0  45180-3 0  9995
2 34816  73.8865 142.6402 0372895 167.5161   5.3578 13.58734798857824
COSMOS 2251 DEB         
1 34818U 93036ABH 26202.12579277  .00000267  00000+0  98347-4 0  9996
2 34818  74.0344 251.6145 0025946 277.6596 111.9546 14.37237192905369
COSMOS 2251 DEB         
1 34819U 93036ABJ 26202.63476778  .00004510  00000+0  81142-3 0  9994
2 34819  74.0165  76.8740 0016010 117.7827 272.0905 14.66824639914652
COSMOS 2251 DEB         
1 34823U 93036ABN 26201.00419590  .00001091  00000+0  21901-3 0  9996
2 34823  74.0392  46.8547 0152198  75.6558 286.1447 14.55822891915713
COSMOS 2251 DEB         
1 34845U 93036ABP 26202.42738708  .00000427  00000+0  12658-3 0  9993
2 34845  74.0249  96.2776 0022165 206.2646 153.7390 14.46245285906566
COSMOS 2251 DEB         
1 34846U 93036ABQ 26203.13333855  .00001598  00000+0  43247-3 0  9995
2 34846  74.0275 207.3010 0026599 227.9791 131.9104 14.48352205906089
COSMOS 2251 DEB         
1 34852U 93036ABW 26203.31975216  .00000176  00000+0  68072-4 0  9990
2 34852  74.0306 215.4007 0017813 269.4362  90.4750 14.37150745907171
COSMOS 2251 DEB         
1 34854U 93036ABY 26202.05765277  .00002142  00000+0  28908-3 0  9994
2 34854  74.0291  85.9783 0062904 141.8360 218.7296 14.78416856751360
COSMOS 2251 DEB         
1 34856U 93036ACA 26202.41526350  .00025022  00000+0  12068-2 0  9994
2 34856  74.0054 346.5860 0029294  67.6442 323.6013 15.18222011924483
COSMOS 2251 DEB         
1 34857U 93036ACB 26202.70676698  .00002377  00000+0  48232-3 0  9999
2 34857  74.0130  44.7218 0064556 113.7778   6.7811 14.60458295911255
COSMOS 2251 DEB         
1 34861U 93036ACF 26202.33286497  .00160993  00000+0  39463-2 0  9991
2 34861  73.9984 309.2763 0008698 350.0948  70.4585 15.39990781914391
COSMOS 2251 DEB         
1 34874U 93036ACM 26202.30597559  .00000934  00000+0  31682-3 0  9990
2 34874  74.0377  28.2832 0051758   2.0519 176.1566 14.37358072902120
COSMOS 2251 DEB         
1 34875U 93036ACN 26203.08037216  .00000897  00000+0  24042-3 0  9996
2 34875  74.0442 103.2581 0015561 175.1190 250.3011 14.49590668909622
COSMOS 2251 DEB         
1 34878U 93036ACR 26203.29605534  .00000455  00000+0  46328-3 0  9997
2 34878  73.9632  55.7310 0434343 356.8774 116.2061 13.44494656842506
COSMOS 2251 DEB         
1 34879U 93036ACS 26202.27381053  .00001020  00000+0  94425-3 0  9992
2 34879  73.9046 305.4441 0492454 347.1457  11.7445 13.39780459612934
COSMOS 2251 DEB         
1 34882U 93036ACV 26201.32470193  .00000245  00000+0  53072-4 0  9997
2 34882  74.0464 165.6003 0083265 237.2678 122.0443 14.61956648917331
COSMOS 2251 DEB         
1 34883U 93036ACW 26202.88575762  .00014075  00000+0  29596-2 0  9996
2 34883  74.1990   8.4310 0089954 121.5650 239.4338 14.57038230896557
COSMOS 2251 DEB         
1 34884U 93036ACX 26203.04801045  .00032371  00000+0  24186-2 0  9991
2 34884  74.0125 328.6331 0006964  24.1713  97.0262 15.02641132911166
COSMOS 2251 DEB         
1 34885U 93036ACY 26203.17473700  .00001587  00000+0  39380-3 0  9997
2 34885  74.0306 125.6340 0014639 162.7394 313.8604 14.52628148906939
COSMOS 2251 DEB         
1 34908U 93036ADD 26202.36373616  .00000758  00000+0  25620-3 0  9999
2 34908  74.0587 337.9696 0041002 302.9798  86.9447 14.38110827904506
COSMOS 2251 DEB         
1 34909U 93036ADE 26202.13463401  .00002103  00000+0  27248-3 0  9991
2 34909  74.0132   2.7422 0081617  81.4219 279.6193 14.79191506701096
COSMOS 2251 DEB         
1 34910U 93036ADF 26201.19781911  .00000312  00000+0  33606-3 0  9992
2 34910  73.8740 114.9909 0467161 196.2969 319.7698 13.37981186844598
COSMOS 2251 DEB         
1 34911U 93036ADG 26202.94499149  .00000364  00000+0  79267-4 0  9997
2 34911  74.0397 183.0431 0084950 253.2539 137.0311 14.59644180918146
COSMOS 2251 DEB         
1 34913U 93036ADJ 26199.90097874  .00000020  00000+0  16408-4 0  9996
2 34913  74.0265 242.6741 0022128 301.3654 235.9002 14.34694352683165
COSMOS 2251 DEB         
1 34918U 93036ADP 26200.84466525  .00001901  00000+0  36465-3 0  9993
2 34918  74.0679 254.4149 0025135 169.4629 313.7529 14.64265396685401
COSMOS 2251 DEB         
1 34924U 93036ADV 26202.49795334  .00002209  00000+0  44079-3 0  9998
2 34924  74.0383  27.6344 0054409  55.4642 334.6305 14.61638486909473
COSMOS 2251 DEB         
1 34944U 93036ADX 26198.26206948  .00001151  00000+0  48593-3 0  9997
2 34944  73.7468 201.2030 0219160  13.3999 347.2831 14.14709866671448
COSMOS 2251 DEB         
1 34946U 93036ADZ 26200.55484330  .00000738  00000+0  14707-3 0  9998
2 34946  74.0227 282.4470 0050919   2.8756 357.2694 14.63146395914089
COSMOS 2251 DEB         
1 34949U 93036AEC 26202.25534290  .00001688  00000+0  24349-3 0  9999
2 34949  74.0164  38.4326 0077547 127.7386 233.0849 14.75082305916126
COSMOS 2251 DEB         
1 34953U 93036AEG 26202.31266897  .00002941  00000+0  47110-3 0  9990
2 34953  74.0928 321.0972 0055263 256.2057 132.7650 14.71201743913702
COSMOS 2251 DEB         
1 34955U 93036AEJ 26196.25473315  .00003139  00000+0  21600-3 0  9998
2 34955  74.0331 168.6331 0071667 183.5470 176.5222 15.04292961932568
COSMOS 2251 DEB         
1 34962U 93036AER 26200.55398458  .00000591  00000+0  16905-3 0  9990
2 34962  74.0296 144.3679 0019049 209.4321 150.5767 14.47177056907438
COSMOS 2251 DEB         
1 34963U 93036AES 26199.78465595  .00001601  00000+0  39072-3 0  9993
2 34963  74.1708 355.2193 0041095 122.7180 237.7956 14.52942780899661
COSMOS 2251 DEB         
1 34964U 93036AET 26197.72455579  .00001572  00000+0  87059-3 0  9992
2 34964  73.9718 331.6087 0209416 143.1520 218.4219 14.01566407875033
COSMOS 2251 DEB         
1 34965U 93036AEU 26201.07289848  .00000368  00000+0  10343-3 0  9995
2 34965  74.0510  77.6797 0025304 150.3528 209.9073 14.49160708902907
COSMOS 2251 DEB         
1 34967U 93036AEW 26202.28190246  .00001040  00000+0  30217-3 0  9994
2 34967  73.9903 202.1052 0041157 296.4898  63.2040 14.45130141681428
COSMOS 2251 DEB         
1 34968U 93036AEX 26202.95003038  .00000394  00000+0  84951-4 0  9997
2 34968  74.0376 185.2640 0087805 250.5711 108.5951 14.59710031917056
COSMOS 2251 DEB         
1 34969U 93036AEY 26202.65164962  .00000413  00000+0  15672-3 0  9994
2 34969  74.0150 339.3404 0074140  58.6762 302.1619 14.32596492683000
COSMOS 2251 DEB         
1 34971U 93036AFA 26201.82628844  .00000293  00000+0  71413-4 0  9991
2 34971  73.9762 226.3492 0069063  37.9120 142.4482 14.55971287693758
COSMOS 2251 DEB         
1 34972U 93036AFB 26202.82661707  .00008465  00000+0  11967-2 0  9993
2 34972  73.9869 336.3831 0033759  74.9428  76.5337 14.76869672909103
COSMOS 2251 DEB         
1 34976U 93036AFF 26202.07423347  .00002837  00000+0  37462-3 0  9996
2 34976  74.0532 233.7502 0044797 227.9630 161.7423 14.79839150915303
